OBJECT_NAME,OBJECT_ID,EPOCH,MEAN_MOTION,ECCENTRICITY,INCLINATION,RA_OF_ASC_NODE,ARG_OF_PERICENTER,MEAN_ANOMALY,EPHEMERIS_TYPE,CLASSIFICATION_TYPE,NORAD_CAT_ID,ELEMENT_SET_NO,REV_AT_EPOCH,BSTAR,MEAN_MOTION_DOT,MEAN_MOTION_DDOT
BEIDOU-3 M26 (C48),2023-207B,2026-06-16T00:32:54.959712,1.86229663,.00031605,55.7540,62.3289,319.7508,40.2636,0,U,58655,999,1680,0,-.53E-6,0
GSAT0225 (GALILEO 29),2024-079A,2026-06-15T08:10:41.065248,1.70473781,.0001559,55.1186,101.1317,303.3470,229.1256,0,U,59598,999,1328,0,-.14E-6,0
GSAT0227 (GALILEO 30),2024-079C,2026-06-16T09:59:23.455680,1.70474004,.0001817,55.1147,101.1001,35.9573,324.0185,0,U,59600,999,1335,0,-.14E-6,0
GSAT0232 (GALILEO 32),2024-167A,2026-06-16T05:01:58.749600,1.70474215,.0006285,55.1853,221.3406,227.7985,220.9959,0,U,61182,999,1086,0,.49E-6,0
GSAT0226 (GALILEO 31),2024-167B,2026-06-16T11:57:56.081664,1.70474202,.00029338,55.1839,221.3398,227.4151,129.9958,0,U,61183,999,1083,0,.46E-6,0
BEIDOU-3 M25 (C47),2024-168B,2026-06-16T09:08:00.746016,1.86229791,.00029714,54.4741,302.2702,300.7065,56.4817,0,U,61186,999,1176,0,-.71E-6,0
BEIDOU-3 M27 (C49),2024-168C,2026-06-15T15:34:51.865824,1.86229845,.00015794,54.4702,302.2787,51.2024,310.6804,0,U,61187,999,923,0,-.7E-6,0
GPS BIII-7  (PRN 01),2024-242A,2026-06-13T08:49:23.989728,2.00571230,.00171883,54.8503,334.3363,3.9293,7.0837,0,U,62339,999,1118,0,-.75E-6,0
QZS-6 (QZSS/PRN 200),2025-023A,2026-06-16T19:07:48.658944,1.00270726,.0001727,0.0530,70.1011,21.0028,191.4314,0,U,62876,999,494,0,-.236E-5,0
COSMOS 2584 (704K),2025-042A,2026-06-16T04:50:31.942176,2.13103849,.00057452,65.0842,72.8354,226.1824,133.8028,0,U,63130,999,1002,0,-.22E-6,0
GPS BIII-8  (PRN 21),2025-116A,2026-06-12T09:20:58.319232,2.00576015,.00085633,55.2312,31.3239,338.8161,228.7168,0,U,64202,999,777,0,-.65E-6,0
COSMOS 2596 (708K),2025-206B,2026-06-16T12:23:35.378016,2.13100531,.00109881,64.6350,315.0084,311.8210,45.8784,0,U,65590,999,589,0,-.56E-6,0
GSAT0233 (GALILEO 33),2025-302A,2026-06-16T15:26:34.581120,1.70473859,.0000828,54.3363,102.1464,225.8121,317.0215,0,U,67160,999,311,0,-.13E-6,0
GSAT0234 (GALILEO 34),2025-302C,2026-06-14T13:55:34.266144,1.70473883,.0003043,54.3363,102.2045,308.4769,228.2268,0,U,67162,999,313,0,-.11E-6,0
GPS BIII-9  (PRN 20),2026-017A,2026-06-13T05:00:40.049568,2.00571123,.00221476,55.0859,88.9150,258.0590,101.6773,0,U,67588,999,43153,0,-.28E-6,0
GPS BIII-10 (PRN 13),2026-087A,2026-06-07T10:32:17.680992,2.00569573,.00209312,54.9638,208.1735,107.2972,251.8874,0,U,68791,999,63,0,.57E-6,0
